NORAD_CAT_ID,OBJECT_NAME,OBJECT_TYPE,EPOCH,MEAN_MOTION,ECCENTRICITY,INCLINATION,RA_OF_ASC_NODE,ARG_OF_PERICENTER,MEAN_ANOMALY,BSTAR,MEAN_MOTION_DOT,MEAN_MOTION_DDOT,TLE_LINE0,TLE_LINE1,TLE_LINE2,SEMIMAJOR_AXIS,PERIOD,APOGEE,PERIGEE,DECAYED
52686.0,STARLINK-4005,PAYLOAD,2023-10-22 17:40:32,15.08825634,0.0001419,53.2165,85.0016,77.094,283.0211,-8.1765e-06,-4.18e-06,0.0,0 STARLINK-4005,1 52686U 22053AG  23295.73649259 -.00000418  00000-0 -81765-5 0  9992,2 52686  53.2165  85.0016 0001419  77.0940 283.0211 15.08825634 79569,6917.924,95.438,540.771,538.808,0.0
52686.0,STARLINK-4005,PAYLOAD,2023-10-23 03:12:51,15.08841922,0.0001074,53.2179,83.2161,85.0514,275.0601,-3.4936e-05,-8.44e-06,0.0,0 STARLINK-4005,1 52686U 22053AG  23296.13392516 -.00000844  00000-0 -34936-4 0  9998,2 52686  53.2179  83.2161 0001074  85.0514 275.0601 15.08841922 79627,6917.875,95.437,540.482,538.997,0.0
52686.0,STARLINK-4005,PAYLOAD,2023-10-24 09:25:11,15.08837047,0.0001575,53.2174,77.5712,82.5296,277.5875,0.00014704,2.053e-05,0.0,0 STARLINK-4005,1 52686U 22053AG  23297.39249031  .00002053  00000-0  14704-3 0  9992,2 52686  53.2174  77.5712 0001575  82.5296 277.5875 15.08837047 79819,6917.889,95.438,540.844,538.665,0.0
52686.0,STARLINK-4005,PAYLOAD,2023-10-25 14:02:07,15.0884201,0.0001557,53.2179,72.2161,82.0684,278.0485,9.2136e-05,1.179e-05,0.0,0 STARLINK-4005,1 52686U 22053AG  23298.58480804  .00001179  00000-0  92136-4 0  9993,2 52686  53.2179  72.2161 0001557  82.0684 278.0485 15.08842010 79998,6917.874,95.437,540.816,538.662,0.0
52686.0,STARLINK-4005,PAYLOAD,2023-10-26 13:52:54,15.08840089,0.0001486,53.2184,67.7563,81.3553,278.7608,5.0006e-05,5.08e-06,0.0,0 STARLINK-4005,1 52686U 22053AG  23299.57840960  .00000508  00000-0  50006-4 0  9991,2 52686  53.2184  67.7563 0001486  81.3553 278.7608 15.08840089 80526,6917.88,95.438,540.773,538.717,0.0
52686.0,STARLINK-4005,PAYLOAD,2023-10-27 12:08:17,15.08848037,0.0001433,53.2186,63.5928,88.2892,271.8265,0.00010536,1.39e-05,0.0,0 STARLINK-4005,1 52686U 22053AG  23300.50576152  .00001390  00000-0  10536-3 0  9999,2 52686  53.2186  63.5928 0001433  88.2892 271.8265 15.08848037 80288,6917.856,95.437,540.712,538.729,0.0
52686.0,STARLINK-4005,PAYLOAD,2023-10-27 15:19:03,15.08853355,0.0001398,53.2189,62.9994,87.431,272.6842,0.00016685,2.369e-05,0.0,0 STARLINK-4005,1 52686U 22053AG  23300.63823630  .00002369  00000-0  16685-3 0  9997,2 52686  53.2189  62.9994 0001398  87.4310 272.6842 15.08853355 80686,6917.84,95.437,540.672,538.737,0.0
52686.0,STARLINK-4005,PAYLOAD,2023-10-28 00:51:23,15.08838841,0.0001408,53.2188,61.2128,93.6663,266.449,5.9095e-05,6.53e-06,0.0,0 STARLINK-4005,1 52686U 22053AG  23301.03568725  .00000653  00000-0  59095-4 0  9990,2 52686  53.2188  61.2128 0001408  93.6663 266.4490 15.08838841 80366,6917.884,95.438,540.723,538.775,0.0
52686.0,STARLINK-4005,PAYLOAD,2023-10-28 08:48:19,15.08832344,0.0001831,53.2185,59.7274,91.8975,268.2227,7.6285e-06,-1.67e-06,0.0,0 STARLINK-4005,1 52686U 22053AG  23301.36689645 -.00000167  00000-0  76285-5 0  9993,2 52686  53.2185  59.7274 0001831  91.8975 268.2227 15.08832344 80419,6917.904,95.438,541.035,538.502,0.0
52686.0,STARLINK-4005,PAYLOAD,2023-10-28 13:34:29,15.08829309,0.000162,53.2192,58.8361,104.1084,256.0088,-0.0001159,-2.132e-05,0.0,0 STARLINK-4005,1 52686U 22053AG  23301.56561350 -.00002132  00000-0 -11590-3 0  9998,2 52686  53.2192  58.8361 0001620 104.1084 256.0088 15.08829309 80821,6917.913,95.438,540.899,538.657,0.0
52686.0,STARLINK-4005,PAYLOAD,2023-10-28 18:20:38,15.08834814,0.0001372,53.2178,57.9412,101.217,258.8977,-1.5165e-05,-5.29e-06,0.0,0 STARLINK-4005,1 52686U 22053AG  23301.76433063 -.00000529  00000-0 -15165-4 0  9990,2 52686  53.2178  57.9412 0001372 101.2170 258.8977 15.08834814 80857,6917.896,95.438,540.71,538.812,0.0
52686.0,STARLINK-4005,PAYLOAD,2023-10-29 11:49:52,15.08851108,0.0001343,53.2175,54.6716,101.9903,258.124,0.00017655,2.524e-05,0.0,0 STARLINK-4005,1 52686U 22053AG  23302.49296364  .00002524  00000-0  17655-3 0  9992,2 52686  53.2175  54.6716 0001343 101.9903 258.1240 15.08851108 80585,6917.846,95.437,540.641,538.782,0.0
52686.0,STARLINK-4005,PAYLOAD,2023-10-29 15:00:38,15.08856984,0.0001256,53.2181,54.0758,94.715,265.3985,0.00042741,6.524e-05,0.0,0 STARLINK-4005,1 52686U 22053AG  23302.62544256  .00006524  00000-0  42741-3 0  9991,2 52686  53.2181  54.0758 0001256  94.7150 265.3985 15.08856984 80985,6917.828,95.436,540.562,538.825,0.0
52686.0,STARLINK-4005,PAYLOAD,2023-10-30 08:29:53,15.08844868,0.0001503,53.2196,50.8055,90.8147,269.3017,0.00022385,3.277e-05,0.0,0 STARLINK-4005,1 52686U 22053AG  23303.35408841  .00003277  00000-0  22385-3 0  9995,2 52686  53.2196  50.8055 0001503  90.8147 269.3017 15.08844868 80712,6917.866,95.437,540.77,538.691,0.0
52686.0,STARLINK-4005,PAYLOAD,2023-10-31 00:23:45,15.08834459,0.0001599,53.2181,47.8326,77.2374,282.8797,0.00020064,2.906e-05,0.0,0 STARLINK-4005,1 52686U 22053AG  23304.01649556  .00002906  00000-0  20064-3 0  9999,2 52686  53.2181  47.8326 0001599  77.2374 282.8797 15.08834459 80810,6917.897,95.438,540.868,538.656,0.0
52686.0,STARLINK-4005,PAYLOAD,2023-10-31 14:42:13,15.08843379,0.0001409,53.2175,45.1564,77.1135,283.0014,0.0007814,0.00012171,0.0,0 STARLINK-4005,1 52686U 22053AG  23304.61265829  .00012171  00000-0  78140-3 0  9995,2 52686  53.2175  45.1564 0001409  77.1135 283.0014 15.08843379 81280,6917.87,95.437,540.71,538.76,0.0
52686.0,STARLINK-4005,PAYLOAD,2023-10-31 16:17:36,15.08847669,0.0001438,53.2172,44.8586,78.0298,282.0855,0.00089408,0.00013973,0.0,0 STARLINK-4005,1 52686U 22053AG  23304.67889760  .00013973  00000-0  89408-3 0  9997,2 52686  53.2172  44.8586 0001438  78.0298 282.0855 15.08847669 81298,6917.857,95.437,540.717,538.727,0.0
52686.0,STARLINK-4005,PAYLOAD,2023-11-01 12:57:37,15.08847589,0.0001398,53.2179,40.9942,82.8336,277.2815,0.00047012,7.203e-05,0.0,0 STARLINK-4005,1 52686U 22053AG  23305.54001797  .00007203  00000-0  47012-3 0  9994,2 52686  53.2179  40.9942 0001398  82.8336 277.2815 15.08847589 81045,6917.857,95.437,540.689,538.755,0.0
52686.0,STARLINK-4005,PAYLOAD,2023-11-01 14:33:00,15.08853897,0.0001525,53.2174,40.6959,84.8534,275.2632,0.00071827,0.00011166,0.0,0 STARLINK-4005,1 52686U 22053AG  23305.60625678  .00011166  00000-0  71827-3 0  9995,2 52686  53.2174  40.6959 0001525  84.8534 275.2632 15.08853897 81436,6917.838,95.437,540.758,538.648,0.0
52686.0,STARLINK-4005,PAYLOAD,2023-11-02 12:48:24,15.08847304,0.0001431,53.2178,36.5329,89.0015,271.1141,0.00044535,6.808e-05,0.0,0 STARLINK-4005,1 52686U 22053AG  23306.53361734  .00006808  00000-0  44535-3 0  9991,2 52686  53.2178  36.5329 0001431  89.0015 271.1141 15.08847304 81191,6917.858,95.437,540.713,538.733,0.0
52686.0,STARLINK-4005,PAYLOAD,2023-11-03 11:03:48,15.0884152,0.0001494,53.218,32.3687,90.3235,269.7929,0.00021096,3.071e-05,0.0,0 STARLINK-4005,1 52686U 22053AG  23307.46097952  .00003071  00000-0  21096-3 0  9998,2 52686  53.2180  32.3687 0001494  90.3235 269.7929 15.08841520 81330,6917.876,95.437,540.774,538.707,0.0
52686.0,STARLINK-4005,PAYLOAD,2023-11-03 22:11:30,15.08846136,0.0001462,53.2181,30.2873,87.8575,272.2585,0.00026026,3.857e-05,0.0,0 STARLINK-4005,1 52686U 22053AG  23307.92465816  .00003857  00000-0  26026-3 0  9997,2 52686  53.2181  30.2873 0001462  87.8575 272.2585 15.08846136 81782,6917.862,95.437,540.738,538.715,0.0
52686.0,STARLINK-4005,PAYLOAD,2023-11-04 10:54:36,15.08832536,0.0001415,53.2176,27.91,82.186,277.9292,-1.1401e-05,-4.69e-06,0.0,0 STARLINK-4005,1 52686U 22053AG  23308.45458567 -.00000469  00000-0 -11401-4 0  9991,2 52686  53.2176  27.9100 0001415  82.1860 277.9292 15.08832536 81488,6917.903,95.438,540.747,538.789,0.0
52686.0,STARLINK-4005,PAYLOAD,2023-11-04 12:29:59,15.08836966,0.0001341,53.2175,27.6137,81.0521,279.0623,0.00011156,1.488e-05,0.0,0 STARLINK-4005,1 52686U 22053AG  23308.52082316  .00001488  00000-0  11156-3 0  9990,2 52686  53.2175  27.6137 0001341  81.0521 279.0623 15.08836966 81879,6917.89,95.438,540.682,538.827,0.0
52686.0,STARLINK-4005,PAYLOAD,2023-11-04 22:02:18,15.08834365,0.0001288,53.2178,25.8289,79.7802,280.3335,0.00025431,3.761e-05,0.0,0 STARLINK-4005,1 52686U 22053AG  23308.91826727  .00003761  00000-0  25431-3 0  9992,2 52686  53.2178  25.8289 0001288  79.7802 280.3335 15.08834365 81939,6917.898,95.438,540.654,538.872,0.0
52686.0,STARLINK-4005,PAYLOAD,2023-11-05 12:20:46,15.08865917,0.0001395,53.2182,23.1546,82.6084,277.5067,0.0012785,0.00020132,0.0,0 STARLINK-4005,1 52686U 22053AG  23309.51442308  .00020132  00000-0  12785-2 0  9996,2 52686  53.2182  23.1546 0001395  82.6084 277.5067 15.08865917 81640,6917.801,95.436,540.631,538.701,0.0
52686.0,STARLINK-4005,PAYLOAD,2023-11-05 21:53:04,15.08878826,0.0001324,53.2174,21.3701,88.2297,271.8847,0.001371,0.00021622,0.0,0 STARLINK-4005,1 52686U 22053AG  23309.91185745  .00021622  00000-0  13710-2 0  9993,2 52686  53.2174  21.3701 0001324  88.2297 271.8847 15.08878826 82089,6917.762,95.435,540.543,538.711,0.0
52686.0,STARLINK-4005,PAYLOAD,2023-11-06 04:14:36,15.08886042,0.0002076,53.217,20.1796,89.5895,270.5335,0.0015569,0.00024608,0.0,0 STARLINK-4005,1 52686U 22053AG  23310.17681434  .00024608  00000-0  15569-2 0  9990,2 52686  53.2170  20.1796 0002076  89.5895 270.5335 15.08886042 81748,6917.74,95.435,541.041,538.169,0.0
52686.0,STARLINK-4005,PAYLOAD,2023-11-06 10:36:09,15.08835685,0.0001374,53.2174,18.9898,119.7712,240.3416,-0.00047119,-7.778e-05,0.0,0 STARLINK-4005,1 52686U 22053AG  23310.44177913 -.00007778  00000-0 -47119-3 0  9990,2 52686  53.2174  18.9898 0001374 119.7712 240.3416 15.08835685 81780,6917.894,95.438,540.709,538.808,0.0
52686.0,STARLINK-4005,PAYLOAD,2023-11-06 12:11:33,15.08820165,0.0001289,53.2168,18.6934,79.2042,280.9096,-0.00081858,-0.00013285,0.0,0 STARLINK-4005,1 52686U 22053AG  23310.50802685 -.00013285  00000-0 -81858-3 0  9996,2 52686  53.2168  18.6934 0001289  79.2042 280.9096 15.08820165 82177,6917.941,95.439,540.698,538.914,0.0
